DELTA 2 R/B(1)          
1 20453U 90008B   26007.57482409  .00041153  00000+0  61464-3 0  9992
2 20453  35.6035 213.3985 0103895  53.3971 307.6267 15.47883849916636
COSMOS 2058             
1 20465U 90010A   26007.72416234  .00003905  00000+0  23350-3 0  9993
2 20465  82.4707 107.4727 0010076 180.2589 179.8637 15.10762247933036
SL-14 R/B               
1 20466U 90010B   26007.98372647  .00000522  00000+0  60379-4 0  9996
2 20466  82.5038 324.3995 0020858 136.5470 223.7394 14.83502499919486
SL-14 R/B               
1 20511U 90018B   26007.80801601  .00000563  00000+0  67813-4 0  9998
2 20511  82.5220 280.0022 0015064 295.0841  64.8810 14.82079879913565
HST                     
1 20580U 90037B   26007.91348581  .00006674  00000+0  22628-3 0  9993
2 20580  28.4664  94.2799 0002310 148.1267 211.9469 15.28446813764003
SL-16 R/B               
1 20625U 90046B   26007.61935307  .00000355  00000+0  20799-3 0  9995
2 20625  70.9997  66.1722 0012963  29.5204 330.6647 14.15003661839753
COSMOS 2084             
1 20663U 90055A   26007.81128327  .00003312  00000+0  24321-3 0  9996
2 20663  62.7895 183.1461 0027360 178.5611 181.5573 15.05209893927153
SL-6 R/B(2)             
1 20666U 90055D   26007.57910482  .00002492  00000+0  19729-3 0  9997
2 20666  62.7836 101.6088 0015967 325.1535  34.8517 15.03232950929008
SL-8 R/B                
1 20775U 90078B   26007.91804204  .00012434  00000+0  37920-3 0  9995
2 20775  82.9065 305.8635 0369022 217.7302 139.7520 14.86871113800260
SL-8 R/B                
1 21088U 91006B   26007.98269872  .00000010  00000+0 -49999-5 0  9997
2 21088  82.9410 215.1917 0021932 202.6404 268.1649 13.77492769755712
OKEAN-3                 
1 21397U 91039A   26007.62580288  .00003214  00000+0  22829-3 0  9993
2 21397  82.5161  35.9851 0014622 172.6817 187.4626 15.04312775855855
COSMOS 2151             
1 21422U 91042A   26007.91078656  .00002576  00000+0  20583-3 0  9994
2 21422  82.4979 142.2820 0011208 264.4809  95.5136 14.99820043854080
