CCSDS_OMM_VERS = 2.0
CREATION_DATE  = 
ORIGINATOR     = 

OBJECT_NAME    = DELTA 2 R/B(1)
OBJECT_ID      = 1990-008B
CENTER_NAME    = EARTH
REF_FRAME      = TEME
TIME_SYSTEM    = UTC
MEAN_ELEMENT_THEORY = SGP/SGP4

EPOCH          = 2026-01-07T13:47:44.801376
MEAN_MOTION    = 15.47883849
ECCENTRICITY   = .01038954
INCLINATION    = 35.6035
RA_OF_ASC_NODE = 213.3985
ARG_OF_PERICENTER = 53.3971
MEAN_ANOMALY   = 307.6267

EPHEMERIS_TYPE = 0
CLASSIFICATION_TYPE = U
NORAD_CAT_ID   = 20453
ELEMENT_SET_NO = 999
REV_AT_EPOCH   = 91663
BSTAR          = .61464361E-3
MEAN_MOTION_DOT = .41153E-3
MEAN_MOTION_DDOT = 0

CCSDS_OMM_VERS = 2.0
CREATION_DATE  = 
ORIGINATOR     = 

OBJECT_NAME    = COSMOS 2058
OBJECT_ID      = 1990-010A
CENTER_NAME    = EARTH
REF_FRAME      = TEME
TIME_SYSTEM    = UTC
MEAN_ELEMENT_THEORY = SGP/SGP4

EPOCH          = 2026-01-07T17:22:47.626176
MEAN_MOTION    = 15.10762247
ECCENTRICITY   = .00100761
INCLINATION    = 82.4707
RA_OF_ASC_NODE = 107.4727
ARG_OF_PERICENTER = 180.2589
MEAN_ANOMALY   = 179.8637

EPHEMERIS_TYPE = 0
CLASSIFICATION_TYPE = U
NORAD_CAT_ID   = 20465
ELEMENT_SET_NO = 999
REV_AT_EPOCH   = 93303
BSTAR          = .23350117E-3
MEAN_MOTION_DOT = .3905E-4
MEAN_MOTION_DDOT = 0

CCSDS_OMM_VERS = 2.0
CREATION_DATE  = 
ORIGINATOR     = 

OBJECT_NAME    = SL-14 R/B
OBJECT_ID      = 1990-010B
CENTER_NAME    = EARTH
REF_FRAME      = TEME
TIME_SYSTEM    = UTC
MEAN_ELEMENT_THEORY = SGP/SGP4

EPOCH          = 2026-01-07T23:36:33.967008
MEAN_MOTION    = 14.83502499
ECCENTRICITY   = .00208586
INCLINATION    = 82.5038
RA_OF_ASC_NODE = 324.3995
ARG_OF_PERICENTER = 136.5470
MEAN_ANOMALY   = 223.7394

EPHEMERIS_TYPE = 0
CLASSIFICATION_TYPE = U
NORAD_CAT_ID   = 20466
ELEMENT_SET_NO = 999
REV_AT_EPOCH   = 91948
BSTAR          = .60379423E-4
MEAN_MOTION_DOT = .522E-5
MEAN_MOTION_DDOT = 0

CCSDS_OMM_VERS = 2.0
CREATION_DATE  = 
ORIGINATOR     = 

OBJECT_NAME    = SL-14 R/B
OBJECT_ID      = 1990-018B
CENTER_NAME    = EARTH
REF_FRAME      = TEME
TIME_SYSTEM    = UTC
MEAN_ELEMENT_THEORY = SGP/SGP4

EPOCH          = 2026-01-07T19:23:32.583264
MEAN_MOTION    = 14.82079879
ECCENTRICITY   = .00150644
INCLINATION    = 82.5220
RA_OF_ASC_NODE = 280.0022
ARG_OF_PERICENTER = 295.0841
MEAN_ANOMALY   = 64.8810

EPHEMERIS_TYPE = 0
CLASSIFICATION_TYPE = U
NORAD_CAT_ID   = 20511
ELEMENT_SET_NO = 999
REV_AT_EPOCH   = 91356
BSTAR          = .67812842E-4
MEAN_MOTION_DOT = .563E-5
MEAN_MOTION_DDOT = 0

CCSDS_OMM_VERS = 2.0
CREATION_DATE  = 
ORIGINATOR     = 

OBJECT_NAME    = HST
OBJECT_ID      = 1990-037B
CENTER_NAME    = EARTH
REF_FRAME      = TEME
TIME_SYSTEM    = UTC
MEAN_ELEMENT_THEORY = SGP/SGP4

EPOCH          = 2026-01-07T21:55:25.173984
MEAN_MOTION    = 15.28446813
ECCENTRICITY   = .00023106
INCLINATION    = 28.4664
RA_OF_ASC_NODE = 94.2799
ARG_OF_PERICENTER = 148.1267
MEAN_ANOMALY   = 211.9469

EPHEMERIS_TYPE = 0
CLASSIFICATION_TYPE = U
NORAD_CAT_ID   = 20580
ELEMENT_SET_NO = 999
REV_AT_EPOCH   = 76400
BSTAR          = .22627677E-3
MEAN_MOTION_DOT = .6674E-4
MEAN_MOTION_DDOT = 0

CCSDS_OMM_VERS = 2.0
CREATION_DATE  = 
ORIGINATOR     = 

OBJECT_NAME    = SL-16 R/B
OBJECT_ID      = 1990-046B
CENTER_NAME    = EARTH
REF_FRAME      = TEME
TIME_SYSTEM    = UTC
MEAN_ELEMENT_THEORY = SGP/SGP4

EPOCH          = 2026-01-07T14:51:52.105248
MEAN_MOTION    = 14.15003661
ECCENTRICITY   = .00129633
INCLINATION    = 70.9997
RA_OF_ASC_NODE = 66.1722
ARG_OF_PERICENTER = 29.5204
MEAN_ANOMALY   = 330.6647

EPHEMERIS_TYPE = 0
CLASSIFICATION_TYPE = U
NORAD_CAT_ID   = 20625
ELEMENT_SET_NO = 999
REV_AT_EPOCH   = 83975
BSTAR          = .20798988E-3
MEAN_MOTION_DOT = .355E-5
MEAN_MOTION_DDOT = 0

CCSDS_OMM_VERS = 2.0
CREATION_DATE  = 
ORIGINATOR     = 

OBJECT_NAME    = COSMOS 2084
OBJECT_ID      = 1990-055A
CENTER_NAME    = EARTH
REF_FRAME      = TEME
TIME_SYSTEM    = UTC
MEAN_ELEMENT_THEORY = SGP/SGP4

EPOCH          = 2026-01-07T19:28:14.874528
MEAN_MOTION    = 15.05209893
ECCENTRICITY   = .00273606
INCLINATION    = 62.7895
RA_OF_ASC_NODE = 183.1461
ARG_OF_PERICENTER = 178.5611
MEAN_ANOMALY   = 181.5573

EPHEMERIS_TYPE = 0
CLASSIFICATION_TYPE = U
NORAD_CAT_ID   = 20663
ELEMENT_SET_NO = 999
REV_AT_EPOCH   = 92715
BSTAR          = .24320505E-3
MEAN_MOTION_DOT = .3312E-4
MEAN_MOTION_DDOT = 0

CCSDS_OMM_VERS = 2.0
CREATION_DATE  = 
ORIGINATOR     = 

OBJECT_NAME    = SL-6 R/B(2)
OBJECT_ID      = 1990-055D
CENTER_NAME    = EARTH
REF_FRAME      = TEME
TIME_SYSTEM    = UTC
MEAN_ELEMENT_THEORY = SGP/SGP4

EPOCH          = 2026-01-07T13:53:54.656448
MEAN_MOTION    = 15.03232950
ECCENTRICITY   = .00159679
INCLINATION    = 62.7836
RA_OF_ASC_NODE = 101.6088
ARG_OF_PERICENTER = 325.1535
MEAN_ANOMALY   = 34.8517

EPHEMERIS_TYPE = 0
CLASSIFICATION_TYPE = U
NORAD_CAT_ID   = 20666
ELEMENT_SET_NO = 999
REV_AT_EPOCH   = 92900
BSTAR          = .19729386E-3
MEAN_MOTION_DOT = .2492E-4
MEAN_MOTION_DDOT = 0

CCSDS_OMM_VERS = 2.0
CREATION_DATE  = 
ORIGINATOR     = 

OBJECT_NAME    = SL-8 R/B
OBJECT_ID      = 1990-078B
CENTER_NAME    = EARTH
REF_FRAME      = TEME
TIME_SYSTEM    = UTC
MEAN_ELEMENT_THEORY = SGP/SGP4

EPOCH          = 2026-01-07T22:01:58.832256
MEAN_MOTION    = 14.86871113
ECCENTRICITY   = .03690227
INCLINATION    = 82.9065
RA_OF_ASC_NODE = 305.8635
ARG_OF_PERICENTER = 217.7302
MEAN_ANOMALY   = 139.7520

EPHEMERIS_TYPE = 0
CLASSIFICATION_TYPE = U
NORAD_CAT_ID   = 20775
ELEMENT_SET_NO = 999
REV_AT_EPOCH   = 80026
BSTAR          = .37919736E-3
MEAN_MOTION_DOT = .12434E-3
MEAN_MOTION_DDOT = 0

CCSDS_OMM_VERS = 2.0
CREATION_DATE  = 
ORIGINATOR     = 

OBJECT_NAME    = SL-8 R/B
OBJECT_ID      = 1991-006B
CENTER_NAME    = EARTH
REF_FRAME      = TEME
TIME_SYSTEM    = UTC
MEAN_ELEMENT_THEORY = SGP/SGP4

EPOCH          = 2026-01-07T23:35:05.169408
MEAN_MOTION    = 13.77492769
ECCENTRICITY   = .00219322
INCLINATION    = 82.9410
RA_OF_ASC_NODE = 215.1917
ARG_OF_PERICENTER = 202.6404
MEAN_ANOMALY   = 268.1649

EPHEMERIS_TYPE = 0
CLASSIFICATION_TYPE = U
NORAD_CAT_ID   = 21088
ELEMENT_SET_NO = 999
REV_AT_EPOCH   = 75571
BSTAR          = -.4999948E-5
MEAN_MOTION_DOT = .1E-6
MEAN_MOTION_DDOT = 0

CCSDS_OMM_VERS = 2.0
CREATION_DATE  = 
ORIGINATOR     = 

OBJECT_NAME    = OKEAN-3
OBJECT_ID      = 1991-039A
CENTER_NAME    = EARTH
REF_FRAME      = TEME
TIME_SYSTEM    = UTC
MEAN_ELEMENT_THEORY = SGP/SGP4

EPOCH          = 2026-01-07T15:01:09.368832
MEAN_MOTION    = 15.04312775
ECCENTRICITY   = .00146221
INCLINATION    = 82.5161
RA_OF_ASC_NODE = 35.9851
ARG_OF_PERICENTER = 172.6817
MEAN_ANOMALY   = 187.4626

EPHEMERIS_TYPE = 0
CLASSIFICATION_TYPE = U
NORAD_CAT_ID   = 21397
ELEMENT_SET_NO = 999
REV_AT_EPOCH   = 85585
BSTAR          = .22828681E-3
MEAN_MOTION_DOT = .3214E-4
MEAN_MOTION_DDOT = 0

CCSDS_OMM_VERS = 2.0
CREATION_DATE  = 
ORIGINATOR     = 

OBJECT_NAME    = COSMOS 2151
OBJECT_ID      = 1991-042A
CENTER_NAME    = EARTH
REF_FRAME      = TEME
TIME_SYSTEM    = UTC
MEAN_ELEMENT_THEORY = SGP/SGP4

EPOCH          = 2026-01-07T21:51:31.958784
MEAN_MOTION    = 14.99820043
ECCENTRICITY   = .00112083
INCLINATION    = 82.4979
RA_OF_ASC_NODE = 142.2820
ARG_OF_PERICENTER = 264.4809
MEAN_ANOMALY   = 95.5136

EPHEMERIS_TYPE = 0
CLASSIFICATION_TYPE = U
NORAD_CAT_ID   = 21422
ELEMENT_SET_NO = 999
REV_AT_EPOCH   = 85408
BSTAR          = .20583469E-3
MEAN_MOTION_DOT = .2576E-4
MEAN_MOTION_DDOT = 0

